[{"OBJECT_NAME":"GHGSAT-C5","OBJECT_ID":"2022-057N","EPOCH":"2026-03-09T21:50:12.501024","MEAN_MOTION":15.32921902,"ECCENTRICITY":0.00082696,"INCLINATION":97.6522,"RA_OF_ASC_NODE":212.4963,"ARG_OF_PERICENTER":109.8004,"MEAN_ANOMALY":250.413,"EPHEMERIS_TYPE":0,"CLASSIFICATION_TYPE":"U","NORAD_CAT_ID":52744,"ELEMENT_SET_NO":999,"REV_AT_EPOCH":21032,"BSTAR":0.00029214604,"MEAN_MOTION_DOT":9.218e-5,"MEAN_MOTION_DDOT":0},{"OBJECT_NAME":"STARLINK-35350","OBJECT_ID":"2025-243L","EPOCH":"2026-03-09T17:07:20.308800","MEAN_MOTION":15.30198438,"ECCENTRICITY":8.715e-5,"INCLINATION":53.1578,"RA_OF_ASC_NODE":245.4147,"ARG_OF_PERICENTER":89.8778,"MEAN_ANOMALY":270.2322,"EPHEMERIS_TYPE":0,"CLASSIFICATION_TYPE":"U","NORAD_CAT_ID":66187,"ELEMENT_SET_NO":999,"REV_AT_EPOCH":2065,"BSTAR":0.00093008315,"MEAN_MOTION_DOT":0.00027287,"MEAN_MOTION_DDOT":0}]
